NORAD_CAT_ID,OBJECT_NAME,OBJECT_TYPE,EPOCH,MEAN_MOTION,ECCENTRICITY,INCLINATION,RA_OF_ASC_NODE,ARG_OF_PERICENTER,MEAN_ANOMALY,BSTAR,MEAN_MOTION_DOT,MEAN_MOTION_DDOT,TLE_LINE0,TLE_LINE1,TLE_LINE2,SEMIMAJOR_AXIS,PERIOD,APOGEE,PERIGEE,DECAYED
55662.0,STARLINK-5479,PAYLOAD,2024-05-20 20:41:00,14.98330854,0.000287,70.0024,23.2762,269.5951,90.4879,0.00038644,4.521e-05,0.0,0 STARLINK-5479,1 55662U 23021AL  24141.86181131  .00004521  00000-0  38644-3 0  9993,2 55662  70.0024  23.2762 0002870 269.5951  90.4879 14.98330854 70442,6950.19,96.107,574.05,570.061,0.0
55662.0,STARLINK-5479,PAYLOAD,2024-05-21 01:29:24,14.98340456,0.0002818,70.0024,22.7719,271.1308,88.9528,0.00088642,0.00010502,0.0,0 STARLINK-5479,1 55662U 23021AL  24142.06208923  .00010502  00000-0  88642-3 0  9994,2 55662  70.0024  22.7719 0002818 271.1308  88.9528 14.98340456 70470,6950.161,96.106,573.984,570.067,0.0
55662.0,STARLINK-5479,PAYLOAD,2024-05-21 20:43:01,14.98334955,0.0003064,70.0027,20.7527,271.463,88.6178,0.00035458,4.141e-05,0.0,0 STARLINK-5479,1 55662U 23021AL  24142.86321224  .00004141  00000-0  35458-3 0  9991,2 55662  70.0027  20.7527 0003064 271.4630  88.6178 14.98334955 70591,6950.178,96.107,574.172,569.913,0.0
55662.0,STARLINK-5479,PAYLOAD,2024-05-21 22:19:09,14.98336093,0.000299,70.0026,20.5833,272.6938,87.3879,0.0003189,3.715e-05,0.0,0 STARLINK-5479,1 55662U 23021AL  24142.92997212  .00003715  00000-0  31890-3 0  9996,2 55662  70.0026  20.5833 0002990 272.6938  87.3879 14.98336093 70903,6950.174,96.107,574.117,569.961,0.0
55662.0,STARLINK-5479,PAYLOAD,2024-05-22 01:31:25,14.98340596,0.0003012,70.0022,20.2463,270.8106,89.2708,0.00040016,4.686e-05,0.0,0 STARLINK-5479,1 55662U 23021AL  24143.06348953  .00004686  00000-0  40016-3 0  9992,2 55662  70.0022  20.2463 0003012 270.8106  89.2708 14.98340596 70925,6950.16,96.106,574.119,569.932,0.0
55662.0,STARLINK-5479,PAYLOAD,2024-05-22 20:45:02,14.98335419,0.0002757,70.0023,18.2255,271.8858,88.1986,0.00013276,1.492e-05,0.0,0 STARLINK-5479,1 55662U 23021AL  24143.86460955  .00001492  00000-0  13276-3 0  9997,2 55662  70.0023  18.2255 0002757 271.8858  88.1986 14.98335419 70746,6950.176,96.107,573.957,570.125,0.0
55662.0,STARLINK-5479,PAYLOAD,2024-05-23 01:33:26,14.98336272,0.0002884,70.0022,17.7212,272.3042,87.7787,0.00011882,1.325e-05,0.0,0 STARLINK-5479,1 55662U 23021AL  24144.06488831  .00001325  00000-0  11882-3 0  9999,2 55662  70.0022  17.7212 0002884 272.3042  87.7787 14.98336272 71073,6950.173,96.107,574.043,570.034,0.0
55662.0,STARLINK-5479,PAYLOAD,2024-05-23 20:47:02,14.98336392,0.0002767,70.002,15.7016,267.1487,92.9355,0.00014799,1.674e-05,0.0,0 STARLINK-5479,1 55662U 23021AL  24144.86600682  .00001674  00000-0  14799-3 0  9994,2 55662  70.0020  15.7016 0002767 267.1487  92.9355 14.98336392 70897,6950.173,96.107,573.961,570.115,0.0
55662.0,STARLINK-5479,PAYLOAD,2024-05-24 14:24:31,14.98334155,0.000264,70.0024,13.8519,263.4835,96.6023,0.0001174,1.308e-05,0.0,0 STARLINK-5479,1 55662U 23021AL  24145.60036586  .00001308  00000-0  11740-3 0  9990,2 55662  70.0024  13.8519 0002640 263.4835  96.6023 14.98334155 71309,6950.18,96.107,573.88,570.21,0.0
55662.0,STARLINK-5479,PAYLOAD,2024-05-24 20:49:04,14.98331726,0.0002666,70.001,13.1769,262.1339,97.9517,4.9283e-05,4.95e-06,0.0,0 STARLINK-5479,1 55662U 23021AL  24145.86740877  .00000495  00000-0  49283-4 0  9993,2 55662  70.0010  13.1769 0002666 262.1339  97.9517 14.98331726 71041,6950.188,96.107,573.905,570.2,0.0
55662.0,STARLINK-5479,PAYLOAD,2024-05-24 22:25:12,14.98332175,0.0002653,70.0009,13.0085,260.6748,99.4111,5.3134e-05,5.41e-06,0.0,0 STARLINK-5479,1 55662U 23021AL  24145.93416793  .00000541  00000-0  53134-4 0  9990,2 55662  70.0009  13.0085 0002653 260.6748  99.4111 14.98332175 71352,6950.186,96.107,573.895,570.207,0.0
55662.0,STARLINK-5479,PAYLOAD,2024-05-25 08:02:00,14.98330736,0.0002326,70.002,11.9965,283.6578,76.4321,-1.9794e-05,-3.29e-06,0.0,0 STARLINK-5479,1 55662U 23021AL  24146.33473199 -.00000329  00000-0 -19794-4 0  9998,2 55662  70.0020  11.9965 0002326 283.6578  76.4321 14.98330736 71418,6950.191,96.107,573.672,570.439,0.0
55662.0,STARLINK-5479,PAYLOAD,2024-05-25 20:50:52,14.98505007,0.0003177,70.0013,10.653,258.1501,101.9302,0.0020282,0.00024302,0.0,0 STARLINK-5479,1 55662U 23021AL  24146.86866202  .00024302  00000-0  20282-2 0  9994,2 55662  70.0013  10.6530 0003177 258.1501 101.9302 14.98505007 71195,6949.652,96.096,573.725,569.309,0.0
55662.0,STARLINK-5479,PAYLOAD,2024-05-26 00:03:21,14.98329409,0.0002867,70.0003,10.3146,268.8992,91.1839,1.4646e-05,8.2e-07,0.0,0 STARLINK-5479,1 55662U 23021AL  24147.00233031  .00000082  00000-0  14646-4 0  9997,2 55662  70.0003  10.3146 0002867 268.8992  91.1839 14.98329409 71219,6950.195,96.107,574.052,570.067,0.0
55662.0,STARLINK-5479,PAYLOAD,2024-05-26 22:29:13,14.98335216,0.0003383,70.0001,7.958,274.8145,85.2627,0.00014003,1.578e-05,0.0,0 STARLINK-5479,1 55662U 23021AL  24147.93696291  .00001578  00000-0  14003-3 0  9997,2 55662  70.0001   7.9580 0003383 274.8145  85.2627 14.98335216 71652,6950.177,96.107,574.393,569.691,0.0
55662.0,STARLINK-5479,PAYLOAD,2024-05-27 00:05:21,14.98335988,0.0003263,69.9997,7.7894,274.3948,85.6838,0.00015631,1.773e-05,0.0,0 STARLINK-5479,1 55662U 23021AL  24148.00372204  .00001773  00000-0  15631-3 0  9996,2 55662  69.9997   7.7894 0003263 274.3948  85.6838 14.98335988 71364,6950.174,96.107,574.307,569.772,0.0
55662.0,STARLINK-5479,PAYLOAD,2024-05-27 08:06:02,14.98329261,0.0002941,70.0001,6.9491,267.619,92.4632,8.2285e-05,8.89e-06,0.0,0 STARLINK-5479,1 55662U 23021AL  24148.33752674  .00000889  00000-0  82285-4 0  9992,2 55662  70.0001   6.9491 0002941 267.6190  92.4632 14.98329261 71414,6950.195,96.107,574.104,570.016,0.0
55662.0,STARLINK-5479,PAYLOAD,2024-05-27 22:31:14,14.98329041,0.0002941,69.9998,5.4335,268.2819,91.8003,8.1945e-05,8.85e-06,0.0,0 STARLINK-5479,1 55662U 23021AL  24148.93836675  .00000885  00000-0  81945-4 0  9990,2 55662  69.9998   5.4335 0002941 268.2819  91.8003 14.98329041 71806,6950.196,96.107,574.105,570.017,0.0
55662.0,STARLINK-5479,PAYLOAD,2024-05-28 00:07:22,14.98329708,0.0002941,69.9998,5.2652,268.3595,91.7227,8.7232e-05,9.48e-06,0.0,0 STARLINK-5479,1 55662U 23021AL  24149.00512622  .00000948  00000-0  87232-4 0  9997,2 55662  69.9998   5.2652 0002941 268.3595  91.7227 14.98329708 71816,6950.194,96.107,574.103,570.015,0.0
55662.0,STARLINK-5479,PAYLOAD,2024-05-28 20:57:07,14.98333203,0.0002947,70.0001,3.0757,267.2177,92.8645,-9.3025e-06,-2.04e-06,0.0,0 STARLINK-5479,1 55662U 23021AL  24149.87300431 -.00000204  00000-0 -93025-5 0  9990,2 55662  70.0001   3.0757 0002947 267.2177  92.8645 14.98333203 71648,6950.183,96.107,574.096,570.0,0.0
55662.0,STARLINK-5479,PAYLOAD,2024-05-28 22:33:15,14.98333267,0.0002948,70.0001,2.9075,267.42,92.6621,-1.0095e-05,-2.13e-06,0.0,0 STARLINK-5479,1 55662U 23021AL  24149.93976408 -.00000213  00000-0 -10095-4 0  9995,2 55662  70.0001   2.9075 0002948 267.4200  92.6621 14.98333267 71955,6950.183,96.107,574.097,569.999,0.0
55662.0,STARLINK-5479,PAYLOAD,2024-05-29 14:34:36,14.98331964,0.0003045,69.9999,1.2241,266.8103,93.2707,5.3188e-05,5.42e-06,0.0,0 STARLINK-5479,1 55662U 23021AL  24150.60736242  .00000542  00000-0  53188-4 0  9994,2 55662  69.9999   1.2241 0003045 266.8103  93.2707 14.98331964 72055,6950.187,96.107,574.168,569.935,0.0
55662.0,STARLINK-5479,PAYLOAD,2024-05-29 20:59:08,14.98333092,0.0003046,69.9999,0.5509,266.478,93.6031,6.2928e-05,6.58e-06,0.0,0 STARLINK-5479,1 55662U 23021AL  24150.87440164  .00000658  00000-0  62928-4 0  9998,2 55662  69.9999   0.5509 0003046 266.4780  93.6031 14.98333092 71790,6950.183,96.107,574.165,569.931,0.0
55662.0,STARLINK-5479,PAYLOAD,2024-05-29 22:35:16,14.98333843,0.0003034,70.0,0.3827,266.2887,93.7925,7.0916e-05,7.53e-06,0.0,0 STARLINK-5479,1 55662U 23021AL  24150.94116084  .00000753  00000-0  70916-4 0  9999,2 55662  70.0000   0.3827 0003034 266.2887  93.7925 14.98333843 72103,6950.181,96.107,574.155,569.937,0.0
55662.0,STARLINK-5479,PAYLOAD,2024-05-30 14:36:36,14.9833594,0.0003064,69.9999,358.6996,266.1102,93.9707,9.9584e-05,1.096e-05,0.0,0 STARLINK-5479,1 55662U 23021AL  24151.60875785  .00001096  00000-0  99584-4 0  9996,2 55662  69.9999 358.6996 0003064 266.1102  93.9707 14.98335940 72206,6950.175,96.107,574.169,569.91,0.0
55662.0,STARLINK-5479,PAYLOAD,2024-05-30 17:48:52,14.98336261,0.0003069,69.9999,358.363,265.1638,94.9171,9.9963e-05,1.1e-05,0.0,0 STARLINK-5479,1 55662U 23021AL  24151.74227721  .00001100  00000-0  99963-4 0  9999,2 55662  69.9999 358.3630 0003069 265.1638  94.9171 14.98336261 72221,6950.174,96.107,574.172,569.906,0.0
55662.0,STARLINK-5479,PAYLOAD,2024-05-31 00:13:24,14.98339378,0.0003032,69.9997,357.6888,262.9529,97.1286,0.00013233,1.487e-05,0.0,0 STARLINK-5479,1 55662U 23021AL  24152.00931324  .00001487  00000-0  13233-3 0  9993,2 55662  69.9997 357.6888 0003032 262.9529  97.1286 14.98339378 71964,6950.164,96.106,574.136,569.922,0.0
55662.0,STARLINK-5479,PAYLOAD,2024-05-31 14:38:37,14.98332198,0.000285,70.0,356.1739,258.974,101.1099,5.2768e-05,5.37e-06,0.0,0 STARLINK-5479,1 55662U 23021AL  24152.61015840  .00000537  00000-0  52768-4 0  9998,2 55662  70.0000 356.1739 0002850 258.9740 101.1099 14.98332198 72353,6950.186,96.107,574.032,570.07,0.0
55662.0,STARLINK-5479,PAYLOAD,2024-05-31 21:03:10,14.98331353,0.0002982,69.9999,355.5007,269.1263,90.9554,1.5403e-05,9.1e-07,0.0,0 STARLINK-5479,1 55662U 23021AL  24152.87719961  .00000091  00000-0  15403-4 0  9991,2 55662  69.9999 355.5007 0002982 269.1263  90.9554 14.98331353 72092,6950.189,96.107,574.126,569.981,0.0
55662.0,STARLINK-5479,PAYLOAD,2024-05-31 22:39:18,14.98328822,0.000313,70.0,355.332,271.3885,88.6916,3.9191e-05,3.75e-06,0.0,0 STARLINK-5479,1 55662U 23021AL  24152.94396055  .00000375  00000-0  39191-4 0  9999,2 55662  70.0000 355.3320 0003130 271.3885  88.6916 14.98328822 72403,6950.197,96.107,574.237,569.886,0.0
